{
  "norad_id": 64073,
  "name": "STARLINK-11729 [DTC]",
  "history": [
    {
      "epoch": "2026-03-28T01:41:04.815168",
      "apogee_km": 357.8567400803922,
      "perigee_km": 354.8577351065069,
      "latitude_deg": 42.18993632004955,
      "longitude_deg": -125.96131648006849,
      "semi_major_axis_km": 6734.49423759345,
      "eccentricity": 0.00022266,
      "inclination_deg": 43.0035,
      "raan_deg": 347.9018,
      "arg_perigee_deg": 259.971,
      "mean_anomaly_deg": 100.0907,
      "mean_motion_rev_day": 15.70888222
    }
  ]
}