{"fetched_at":"2026-03-28T16:33:49Z","count":6709,"tles":[{"name":"STARLINK-11729 [DTC]","line1":"1 64073U 25107K   26087.07019462  .00200619  00000+0  15264-2 0  9994","line2":"2 64073  43.0035 347.9018 0002227 259.9710 100.0907 15.70888222 50189","category":"Starlink"}]}